[{"OBJECT_NAME":"GEOSCAN 2 (RS92S2)","OBJECT_ID":"2025-155Q","EPOCH":"2026-03-09T23:01:48.939744","MEAN_MOTION":15.28709337,"ECCENTRICITY":0.00085277,"INCLINATION":97.4463,"RA_OF_ASC_NODE":37.5259,"ARG_OF_PERICENTER":140.9505,"MEAN_ANOMALY":219.2352,"EPHEMERIS_TYPE":0,"CLASSIFICATION_TYPE":"U","NORAD_CAT_ID":64890,"ELEMENT_SET_NO":999,"REV_AT_EPOCH":6561,"BSTAR":0.00051551761,"MEAN_MOTION_DOT":0.00014341,"MEAN_MOTION_DDOT":0},{"OBJECT_NAME":"STARLINK-35323","OBJECT_ID":"2025-235P","EPOCH":"2026-03-09T19:25:15.541824","MEAN_MOTION":15.30182085,"ECCENTRICITY":0.00011974,"INCLINATION":53.1599,"RA_OF_ASC_NODE":244.4353,"ARG_OF_PERICENTER":81.9408,"MEAN_ANOMALY":278.1728,"EPHEMERIS_TYPE":0,"CLASSIFICATION_TYPE":"U","NORAD_CAT_ID":66071,"ELEMENT_SET_NO":999,"REV_AT_EPOCH":2294,"BSTAR":0.0013711625,"MEAN_MOTION_DOT":0.00040449,"MEAN_MOTION_DDOT":0}]
